H1 CPF 01  gfz 2021 09 30 12  7732 tandemx   
H2 1003001  6202 36605    2021 09 30 12 59 42 2021 10 05 00 00 42   120 1 1  0 0 0
H9
10 0 59488  10062.000000  0   -3547857.290  -3002196.640   5074378.434
10 0 59488  10182.000000  0   -3146870.658  -2388731.551   5632560.872
10 0 59488  10302.000000  0   -2679885.286  -1741138.475   6091663.731
10 0 59488  10422.000000  0   -2154586.895  -1071828.396   6443650.600
10 0 59488  10542.000000  0   -1579890.383   -393436.366   6682370.000
10 0 59488  10662.000000  0    -965783.995    281418.526   6803654.835
10 0 59488  10782.000000  0    -323155.440    940366.144   6805389.733
10 0 59488  10902.000000  0     336400.860   1571511.529   6687546.228
10 0 59488  11022.000000  0    1000792.632   2163649.631   6452183.380
10 0 59488  11142.000000  0    1657650.930   2706464.170   6103413.168
10 0 59488  11262.000000  0    2294559.482   3190707.896   5647333.379
10 0 59488  11382.000000  0    2899290.007   3608363.363   5091927.928
10 0 59488  11502.000000  0    3460040.070   3952780.280   4446932.396
10 0 59488  11622.000000  0    3965665.492   4218784.585   3723667.420
10 0 59488  11742.000000  0    4405906.192   4402761.818   2934845.810
10 0 59488  11862.000000  0    4771601.373   4502708.129   2094346.889
10 0 59488  11982.000000  0    5054882.114   4518248.820   1216969.776
10 0 59488  12102.000000  0    5249343.784   4450623.897    318167.364
10 0 59488  12222.000000  0    5350189.095   4302639.811   -586235.068
10 0 59488  12342.000000  0    5354337.756   4078588.880  -1480327.478
10 0 59488  12462.000000  0    5260502.419   3784139.111  -2348402.848
10 0 59488  12582.000000  0    5069228.403   3426196.685  -3175239.386
10 0 59488  12702.000000  0    4782896.433   3012746.445  -3946370.873
10 0 59488  12822.000000  0    4405688.969   2552674.227  -4648340.913
10 0 59488  12942.000000  0    3943521.091   2055573.662  -5268934.536
10 0 59488  13062.000000  0    3403939.311   1531544.710  -5797383.220
10 0 59488  13182.000000  0    2795990.640    990988.568  -6224542.333
10 0 59488  13302.000000  0    2130064.557    444402.529  -6543038.017
10 0 59488  13422.000000  0    1417713.124    -97820.510  -6747382.295
10 0 59488  13542.000000  0     671452.066   -625585.431  -6834059.274
10 0 59488  13662.000000  0     -95457.395  -1129278.811  -6801578.670
10 0 59488  13782.000000  0    -869238.418  -1599938.826  -6650497.132
10 0 59488  13902.000000  0   -1635839.644  -2029410.447  -6383410.773
10 0 59488  14022.000000  0   -2381184.812  -2410484.727  -6004915.421
10 0 59488  14142.000000  0   -3091425.565  -2737018.604  -5521535.613
10 0 59488  14262.000000  0   -3753196.115  -3004035.350  -4941624.385
10 0 59488  14382.000000  0   -4353866.571  -3207803.678  -4275230.484
10 0 59488  14502.000000  0   -4881787.526  -3345892.173  -3533934.424
10 0 59488  14622.000000  0   -5326522.387  -3417198.711  -2730656.024
10 0 59488  14742.000000  0   -5679062.018  -3421953.666  -1879434.394
10 0 59488  14862.000000  0   -5932015.356  -3361695.806   -995183.851
10 0 59488  14982.000000  0   -6079771.574  -3239221.425    -93430.475
10 0 59488  15102.000000  0   -6118629.045  -3058507.154    809965.800
10 0 59488  15222.000000  0   -6046887.496  -2824608.521   1699098.773
10 0 59488  15342.000000  0   -5864898.109  -2543535.492   2558306.338
10 0 59488  15462.000000  0   -5575071.923  -2222109.093   3372454.122
10 0 59488  15582.000000  0   -5181848.064  -1867803.630   4127209.961
10 0 59488  15702.000000  0   -4691618.470  -1488576.179   4809301.118
10 0 59488  15822.000000  0   -4112615.632  -1092690.464   5406747.211
10 0 59488  15942.000000  0   -3454767.084   -688539.330   5909068.736
10 0 59488  16062.000000  0   -2729517.447   -284467.793   6307468.231
10 0 59488  16182.000000  0   -1949621.351    111398.580   6594978.930
10 0 59488  16302.000000  0   -1128913.699    491314.837   6766579.362
10 0 59488  16422.000000  0    -282062.257    848066.285   6819275.555
10 0 59488  16542.000000  0     575694.550   1175104.422   6752149.641
10 0 59488  16662.000000  0    1428820.913   1466666.897   6566374.940
10 0 59488  16782.000000  0    2261764.261   1717879.426   6265196.368
10 0 59488  16902.000000  0    3059238.123   1924837.382   5853877.489
10 0 59488  17022.000000  0    3806504.770   2084666.886   5339614.475
10 0 59488  17142.000000  0    4489650.827   2195563.852   4731415.542
10 0 59488  17262.000000  0    5095851.169   2256811.504   4039950.038
10 0 59488  17382.000000  0    5613619.829   2268774.991   3277366.078
10 0 59488  17502.000000  0    6033036.123   2232871.279   2457075.654
10 0 59488  17622.000000  0    6345942.451   2151517.745   1593518.783
10 0 59488  17742.000000  0    6546111.584   2028058.644    701904.153
10 0 59488  17862.000000  0    6629375.030   1866671.094   -202066.171
10 0 59488  17982.000000  0    6593710.064   1672254.590  -1102482.707
10 0 59488  18102.000000  0    6439282.655   1450304.812  -1983516.410
10 0 59488  18222.000000  0    6168449.545   1206775.667  -2829703.805
10 0 59488  18342.000000  0    5785714.332    947933.555  -3626224.797
10 0 59488  18462.000000  0    5297640.943    680208.023  -4359164.311
10 0 59488  18582.000000  0    4712727.831    410042.298  -5015753.644
10 0 59488  18702.000000  0    4041247.714    143747.301  -5584586.312
10 0 59488  18822.000000  0    3295057.528   -112637.074  -6055807.227
10 0 59488  18942.000000  0    2487381.606   -353471.049  -6421273.702
10 0 59488  19062.000000  0    1632572.950   -573632.358  -6674683.918
10 0 59488  19182.000000  0     745859.461   -768619.751  -6811675.241
10 0 59488  19302.000000  0    -156924.720   -934640.730  -6829891.926
10 0 59488  19422.000000  0   -1059616.004  -1068682.014  -6729019.894
10 0 59488  19542.000000  0   -1946003.540  -1168562.783  -6510792.256
10 0 59488  19662.000000  0   -2800114.216  -1232969.387  -6178962.246
10 0 59488  19782.000000  0   -3606493.567  -1261471.310  -5739244.899
10 0 59488  19902.000000  0   -4350482.781  -1254518.700  -5199230.517
10 0 59488  20022.000000  0   -5018487.495  -1213420.598  -4568264.993
10 0 59488  20142.000000  0   -5598231.054  -1140304.449  -3857299.263
10 0 59488  20262.000000  0   -6078989.145  -1038057.391  -3078709.393
10 0 59488  20382.000000  0   -6451800.035   -910250.049  -2246087.715
10 0 59488  20502.000000  0   -6709644.035   -761044.224  -1374008.601
10 0 59488  20622.000000  0   -6847588.537   -595086.923   -477772.613
10 0 59488  20742.000000  0   -6862892.760   -417391.270    426867.704
10 0 59488  20862.000000  0   -6755068.175   -233208.826   1323991.353
10 0 59488  20982.000000  0   -6525895.276    -47897.212   2197797.768
10 0 59488  21102.000000  0   -6179393.769    133214.696   3032894.400
10 0 59488  21222.000000  0   -5721747.320    304960.421   3814576.280
10 0 59488  21342.000000  0   -5161184.682    462464.668   4529090.652
10 0 59488  21462.000000  0   -4507821.562    601263.613   5163881.286
10 0 59488  21582.000000  0   -3773467.802    717414.547   5707807.685
10 0 59488  21702.000000  0   -2971405.098    807592.059   6151337.679
10 0 59488  21822.000000  0   -2116138.839    869168.198   6486709.916
10 0 59488  21942.000000  0   -1223129.567    900276.503   6708064.354
10 0 59488  22062.000000  0    -308509.659    899857.845   6811537.638
10 0 59488  22182.000000  0     611208.217    867687.122   6795325.472
10 0 59488  22302.000000  0    1519428.075    804380.914   6659711.885
10 0 59488  22422.000000  0    2399768.889    711386.103   6407064.713
10 0 59488  22542.000000  0    3236359.488    590949.192   6041797.502
10 0 59488  22662.000000  0    4014126.806    446066.760   5570297.402
10 0 59488  22782.000000  0    4719070.927    280418.109   5000819.019
10 0 59488  22902.000000  0    5338522.745     98280.296   4343346.127
10 0 59488  23022.000000  0    5861380.511    -95571.780   3609421.968
10 0 59488  23142.000000  0    6278319.442   -295977.649   2811948.988
10 0 59488  23262.000000  0    6581968.436   -497514.563   1964960.663
10 0 59488  23382.000000  0    6767048.025   -694629.837   1083371.189
10 0 59488  23502.000000  0    6830469.512   -881777.151    182707.704
10 0 59488  23622.000000  0    6771390.963  -1053554.027   -721171.875
10 0 59488  23742.000000  0    6591225.608  -1204837.448  -1612367.705
10 0 59488  23862.000000  0    6293605.413  -1330913.296  -2475225.968
10 0 59488  23982.000000  0    5884299.846  -1427596.723  -3294620.223
10 0 59488  24102.000000  0    5371093.604  -1491340.439  -4056219.691
10 0 59488  24222.000000  0    4763626.743  -1519327.831  -4746739.404
10 0 59488  24342.000000  0    4073202.355  -1509549.502  -5354167.926
10 0 59488  24462.000000  0    3312565.787  -1460862.433  -5867969.202
10 0 59488  24582.000000  0    2495661.534  -1373029.735  -6279254.662
10 0 59488  24702.000000  0    1637374.405  -1246740.047  -6580925.901
10 0 59488  24822.000000  0     753257.757  -1083607.384  -6767786.529
10 0 59488  24942.000000  0    -140745.232   -886152.334  -6836622.141
10 0 59488  25062.000000  0   -1028583.412   -657763.510  -6786249.121
10 0 59488  25182.000000  0   -1894378.936   -402640.705  -6617533.143
10 0 59488  25302.000000  0   -2722705.063   -125719.493  -6333375.109
10 0 59488  25422.000000  0   -3498854.404    167420.459  -5938666.044
10 0 59488  25542.000000  0   -4209096.957    470663.186  -5440213.135
10 0 59488  25662.000000  0   -4840924.272    777478.284  -4846632.917
10 0 59488  25782.000000  0   -5383274.411   1081054.903  -4168214.985
10 0 59488  25902.000000  0   -5826735.067   1374447.345  -3416754.365
10 0 59488  26022.000000  0   -6163717.706   1650727.483  -2605354.210
10 0 59488  26142.000000  0   -6388599.670   1903140.757  -1748202.126
10 0 59488  26262.000000  0   -6497830.597   2125262.935   -860323.226
10 0 59488  26382.000000  0   -6489998.962   2311153.201     42686.973
10 0 59488  26502.000000  0   -6365855.463   2455499.150    944943.414
99
